ONEWEB-0328             
1 49197U 21083M   25218.91266614  .00001316  00000+0  35677-2 0  9997
2 49197  87.8971  22.6324 0001596  94.6750 265.4561 13.13476806189649
ONEWEB-0331             
1 49198U 21083N   25218.86684753 -.00000013  00000+0 -65942-4 0  9995
2 49198  87.9127  37.8790 0001692 102.7335 257.3987 13.18685118188583
ONEWEB-0333             
1 49199U 21083P   25218.83141715  .00000311  00000+0  81571-3 0  9993
2 49199  87.8971  22.7193 0001845  91.8716 268.2625 13.13469260189642
ONEWEB-0334             
1 49200U 21083Q   25218.82760764  .00000009  00000+0 -10146-4 0  9992
2 49200  87.9288 337.1051 0002480  75.9922 284.1487 13.20772172195299
ONEWEB-0335             
1 49201U 21083R   25218.90251424  .00000327  00000+0  85938-3 0  9992
2 49201  87.8967  22.6921 0001816  99.3102 260.8232 13.13470122189662
ONEWEB-0336             
1 49202U 21083S   25218.87372557 -.00000338  00000+0 -96043-3 0  9993
2 49202  87.8967  22.6916 0001912  94.6316 265.5031 13.13470141189658
ONEWEB-0337             
1 49203U 21083T   25218.88373534 -.00000035  00000+0 -13192-3 0  9999
2 49203  87.8979  22.6897 0001613  97.3039 262.8274 13.13466976189650
ONEWEB-0338             
1 49204U 21083U   25218.87812775 -.00000002  00000+0 -37081-4 0  9992
2 49204  87.9297 337.0898 0001981  89.1203 271.0157 13.20771302195322
ONEWEB-0339             
1 49205U 21083V   25218.89235761  .00000141  00000+0  35151-3 0  9996
2 49205  87.8968  22.6738 0001685  89.7875 270.3447 13.13470138189635
ONEWEB-0340             
1 49206U 21083W   25218.92953877  .00000021  00000+0  19812-4 0  9990
2 49206  87.9129  37.8702 0001804  92.7563 267.3776 13.18685315188557
ONEWEB-0341             
1 49207U 21083X   25218.93611704  .00000065  00000+0  13195-3 0  9997
2 49207  87.9131  37.8802 0001238  89.6811 270.4463 13.18684442188574
ONEWEB-0342             
1 49208U 21083Y   25218.88443611  .00000001  00000+0 -28214-4 0  9992
2 49208  87.9286 337.0619 0001929  95.2652 264.8702 13.20772612195290
ONEWEB-0343             
1 49209U 21083Z   25218.93199651  .00000076  00000+0  15990-3 0  9998
2 49209  87.9129  37.8675 0001359  75.1113 285.0170 13.18688260188625
ONEWEB-0344             
1 49210U 21083AA  25218.88727178 -.00000034  00000+0 -12920-3 0  9991
2 49210  87.8969  22.7147 0001366  96.6054 263.5231 13.13470365189636
ONEWEB-0345             
1 49211U 21083AB  25218.87881239 -.00000190  00000+0 -55510-3 0  9995
2 49211  87.8974  22.6686 0001326  97.7120 262.4160 13.13469712189646
ONEWEB-0346             
1 49212U 21083AC  25218.86519734  .00000055  00000+0  10648-3 0  9994
2 49212  87.9131  37.9030 0002073 107.6453 252.4906 13.18687062188556
ONEWEB-0348             
1 49213U 21083AD  25218.87495487 -.00000011  00000+0 -58348-4 0  9998
2 49213  87.9292 337.0749 0001696 118.1492 241.9813 13.20773376195326
