[{"OBJECT_NAME":"ONEWEB-0328","OBJECT_ID":"2021-083M","EPOCH":"2025-08-06T21:54:14.354496","MEAN_MOTION":13.13476806,"ECCENTRICITY":0.00015967,"INCLINATION":87.8971,"RA_OF_ASC_NODE":22.6324,"ARG_OF_PERICENTER":94.675,"MEAN_ANOMALY":265.4561,"EPHEMERIS_TYPE":0,"CLASSIFICATION_TYPE":"U","NORAD_CAT_ID":49197,"ELEMENT_SET_NO":999,"REV_AT_EPOCH":18964,"BSTAR":0.0035677053,"MEAN_MOTION_DOT":1.316e-5,"MEAN_MOTION_DDOT":0},{"OBJECT_NAME":"ONEWEB-0331","OBJECT_ID":"2021-083N","EPOCH":"2025-08-06T20:48:15.626592","MEAN_MOTION":13.18685118,"ECCENTRICITY":0.00016924,"INCLINATION":87.9127,"RA_OF_ASC_NODE":37.879,"ARG_OF_PERICENTER":102.7335,"MEAN_ANOMALY":257.3987,"EPHEMERIS_TYPE":0,"CLASSIFICATION_TYPE":"U","NORAD_CAT_ID":49198,"ELEMENT_SET_NO":999,"REV_AT_EPOCH":18858,"BSTAR":-6.5941971e-5,"MEAN_MOTION_DOT":-1.3e-7,"MEAN_MOTION_DDOT":0},{"OBJECT_NAME":"ONEWEB-0333","OBJECT_ID":"2021-083P","EPOCH":"2025-08-06T19:57:14.441760","MEAN_MOTION":13.1346926,"ECCENTRICITY":0.00018457,"INCLINATION":87.8971,"RA_OF_ASC_NODE":22.7193,"ARG_OF_PERICENTER":91.8716,"MEAN_ANOMALY":268.2625,"EPHEMERIS_TYPE":0,"CLASSIFICATION_TYPE":"U","NORAD_CAT_ID":49199,"ELEMENT_SET_NO":999,"REV_AT_EPOCH":18964,"BSTAR":0.00081570583,"MEAN_MOTION_DOT":3.11e-6,"MEAN_MOTION_DDOT":0},{"OBJECT_NAME":"ONEWEB-0334","OBJECT_ID":"2021-083Q","EPOCH":"2025-08-06T19:51:45.300096","MEAN_MOTION":13.20772172,"ECCENTRICITY":0.00024809,"INCLINATION":87.9288,"RA_OF_ASC_NODE":337.1051,"ARG_OF_PERICENTER":75.9922,"MEAN_ANOMALY":284.1487,"EPHEMERIS_TYPE":0,"CLASSIFICATION_TYPE":"U","NORAD_CAT_ID":49200,"ELEMENT_SET_NO":999,"REV_AT_EPOCH":19529,"BSTAR":-1.0146362e-5,"MEAN_MOTION_DOT":9.0e-8,"MEAN_MOTION_DDOT":0},{"OBJECT_NAME":"ONEWEB-0335","OBJECT_ID":"2021-083R","EPOCH":"2025-08-06T21:39:37.230336","MEAN_MOTION":13.13470122,"ECCENTRICITY":0.00018161,"INCLINATION":87.8967,"RA_OF_ASC_NODE":22.6921,"ARG_OF_PERICENTER":99.3102,"MEAN_ANOMALY":260.8232,"EPHEMERIS_TYPE":0,"CLASSIFICATION_TYPE":"U","NORAD_CAT_ID":49201,"ELEMENT_SET_NO":999,"REV_AT_EPOCH":18966,"BSTAR":0.00085938251,"MEAN_MOTION_DOT":3.27e-6,"MEAN_MOTION_DDOT":0},{"OBJECT_NAME":"ONEWEB-0336","OBJECT_ID":"2021-083S","EPOCH":"2025-08-06T20:58:09.889248","MEAN_MOTION":13.13470141,"ECCENTRICITY":0.00019129,"INCLINATION":87.8967,"RA_OF_ASC_NODE":22.6916,"ARG_OF_PERICENTER":94.6316,"MEAN_ANOMALY":265.5031,"EPHEMERIS_TYPE":0,"CLASSIFICATION_TYPE":"U","NORAD_CAT_ID":49202,"ELEMENT_SET_NO":999,"REV_AT_EPOCH":18965,"BSTAR":-0.000960432,"MEAN_MOTION_DOT":-3.38e-6,"MEAN_MOTION_DDOT":0},{"OBJECT_NAME":"ONEWEB-0337","OBJECT_ID":"2021-083T","EPOCH":"2025-08-06T21:12:34.733376","MEAN_MOTION":13.13466976,"ECCENTRICITY":0.00016135,"INCLINATION":87.8979,"RA_OF_ASC_NODE":22.6897,"ARG_OF_PERICENTER":97.3039,"MEAN_ANOMALY":262.8274,"EPHEMERIS_TYPE":0,"CLASSIFICATION_TYPE":"U","NORAD_CAT_ID":49203,"ELEMENT_SET_NO":999,"REV_AT_EPOCH":18965,"BSTAR":-0.00013191613,"MEAN_MOTION_DOT":-3.5e-7,"MEAN_MOTION_DDOT":0},{"OBJECT_NAME":"ONEWEB-0338","OBJECT_ID":"2021-083U","EPOCH":"2025-08-06T21:04:30.237600","MEAN_MOTION":13.20771302,"ECCENTRICITY":0.0001981,"INCLINATION":87.9297,"RA_OF_ASC_NODE":337.0898,"ARG_OF_PERICENTER":89.1203,"MEAN_ANOMALY":271.0157,"EPHEMERIS_TYPE":0,"CLASSIFICATION_TYPE":"U","NORAD_CAT_ID":49204,"ELEMENT_SET_NO":999,"REV_AT_EPOCH":19532,"BSTAR":-3.7080939e-5,"MEAN_MOTION_DOT":-2.0e-8,"MEAN_MOTION_DDOT":0},{"OBJECT_NAME":"ONEWEB-0339","OBJECT_ID":"2021-083V","EPOCH":"2025-08-06T21:24:59.697504","MEAN_MOTION":13.13470138,"ECCENTRICITY":0.00016854,"INCLINATION":87.8968,"RA_OF_ASC_NODE":22.6738,"ARG_OF_PERICENTER":89.7875,"MEAN_ANOMALY":270.3447,"EPHEMERIS_TYPE":0,"CLASSIFICATION_TYPE":"U","NORAD_CAT_ID":49205,"ELEMENT_SET_NO":999,"REV_AT_EPOCH":18963,"BSTAR":0.0003515141,"MEAN_MOTION_DOT":1.41e-6,"MEAN_MOTION_DDOT":0},{"OBJECT_NAME":"ONEWEB-0340","OBJECT_ID":"2021-083W","EPOCH":"2025-08-06T22:18:32.149728","MEAN_MOTION":13.18685315,"ECCENTRICITY":0.00018049,"INCLINATION":87.9129,"RA_OF_ASC_NODE":37.8702,"ARG_OF_PERICENTER":92.7563,"MEAN_ANOMALY":267.3776,"EPHEMERIS_TYPE":0,"CLASSIFICATION_TYPE":"U","NORAD_CAT_ID":49206,"ELEMENT_SET_NO":999,"REV_AT_EPOCH":18855,"BSTAR":1.9812058e-5,"MEAN_MOTION_DOT":2.1e-7,"MEAN_MOTION_DDOT":0},{"OBJECT_NAME":"ONEWEB-0341","OBJECT_ID":"2021-083X","EPOCH":"2025-08-06T22:28:00.512256","MEAN_MOTION":13.18684442,"ECCENTRICITY":0.00012383,"INCLINATION":87.9131,"RA_OF_ASC_NODE":37.8802,"ARG_OF_PERICENTER":89.6811,"MEAN_ANOMALY":270.4463,"EPHEMERIS_TYPE":0,"CLASSIFICATION_TYPE":"U","NORAD_CAT_ID":49207,"ELEMENT_SET_NO":999,"REV_AT_EPOCH":18857,"BSTAR":0.00013195092,"MEAN_MOTION_DOT":6.5e-7,"MEAN_MOTION_DDOT":0},{"OBJECT_NAME":"ONEWEB-0342","OBJECT_ID":"2021-083Y","EPOCH":"2025-08-06T21:13:35.279904","MEAN_MOTION":13.20772612,"ECCENTRICITY":0.00019294,"INCLINATION":87.9286,"RA_OF_ASC_NODE":337.0619,"ARG_OF_PERICENTER":95.2652,"MEAN_ANOMALY":264.8702,"EPHEMERIS_TYPE":0,"CLASSIFICATION_TYPE":"U","NORAD_CAT_ID":49208,"ELEMENT_SET_NO":999,"REV_AT_EPOCH":19529,"BSTAR":-2.8214093e-5,"MEAN_MOTION_DOT":1.0e-8,"MEAN_MOTION_DDOT":0},{"OBJECT_NAME":"ONEWEB-0343","OBJECT_ID":"2021-083Z","EPOCH":"2025-08-06T22:22:04.498464","MEAN_MOTION":13.1868826,"ECCENTRICITY":0.00013594,"INCLINATION":87.9129,"RA_OF_ASC_NODE":37.8675,"ARG_OF_PERICENTER":75.1113,"MEAN_ANOMALY":285.017,"EPHEMERIS_TYPE":0,"CLASSIFICATION_TYPE":"U","NORAD_CAT_ID":49209,"ELEMENT_SET_NO":999,"REV_AT_EPOCH":18862,"BSTAR":0.00015990032,"MEAN_MOTION_DOT":7.6e-7,"MEAN_MOTION_DDOT":0},{"OBJECT_NAME":"ONEWEB-0344","OBJECT_ID":"2021-083AA","EPOCH":"2025-08-06T21:17:40.281792","MEAN_MOTION":13.13470365,"ECCENTRICITY":0.00013666,"INCLINATION":87.8969,"RA_OF_ASC_NODE":22.7147,"ARG_OF_PERICENTER":96.6054,"MEAN_ANOMALY":263.5231,"EPHEMERIS_TYPE":0,"CLASSIFICATION_TYPE":"U","NORAD_CAT_ID":49210,"ELEMENT_SET_NO":999,"REV_AT_EPOCH":18963,"BSTAR":-0.0001292019,"MEAN_MOTION_DOT":-3.4e-7,"MEAN_MOTION_DDOT":0},{"OBJECT_NAME":"ONEWEB-0345","OBJECT_ID":"2021-083AB","EPOCH":"2025-08-06T21:05:29.390496","MEAN_MOTION":13.13469712,"ECCENTRICITY":0.0001326,"INCLINATION":87.8974,"RA_OF_ASC_NODE":22.6686,"ARG_OF_PERICENTER":97.712,"MEAN_ANOMALY":262.416,"EPHEMERIS_TYPE":0,"CLASSIFICATION_TYPE":"U","NORAD_CAT_ID":49211,"ELEMENT_SET_NO":999,"REV_AT_EPOCH":18964,"BSTAR":-0.00055510189,"MEAN_MOTION_DOT":-1.9e-6,"MEAN_MOTION_DDOT":0},{"OBJECT_NAME":"ONEWEB-0346","OBJECT_ID":"2021-083AC","EPOCH":"2025-08-06T20:45:53.050176","MEAN_MOTION":13.18687062,"ECCENTRICITY":0.0002073,"INCLINATION":87.9131,"RA_OF_ASC_NODE":37.903,"ARG_OF_PERICENTER":107.6453,"MEAN_ANOMALY":252.4906,"EPHEMERIS_TYPE":0,"CLASSIFICATION_TYPE":"U","NORAD_CAT_ID":49212,"ELEMENT_SET_NO":999,"REV_AT_EPOCH":18855,"BSTAR":0.00010648086,"MEAN_MOTION_DOT":5.5e-7,"MEAN_MOTION_DDOT":0},{"OBJECT_NAME":"ONEWEB-0348","OBJECT_ID":"2021-083AD","EPOCH":"2025-08-06T20:59:56.100768","MEAN_MOTION":13.20773376,"ECCENTRICITY":0.0001696,"INCLINATION":87.9292,"RA_OF_ASC_NODE":337.0749,"ARG_OF_PERICENTER":118.1492,"MEAN_ANOMALY":241.9813,"EPHEMERIS_TYPE":0,"CLASSIFICATION_TYPE":"U","NORAD_CAT_ID":49213,"ELEMENT_SET_NO":999,"REV_AT_EPOCH":19532,"BSTAR":-5.8348452e-5,"MEAN_MOTION_DOT":-1.1e-7,"MEAN_MOTION_DDOT":0}]
